CTC2_L_00367016-03
1 88130U 25568HY  26037.47795139  .00000000  00000+0  00000-0 0  9998
2 88130  55.0000 180.0000 0000000   0.0000   0.0000 13.16009617    16
CTC2_L_00367016-04
1 88131U 22761SS  26037.47795139  .00000000  00000+0  00000-0 0  9991
2 88131  55.0000 180.0000 0000000   0.0000  90.0000 13.16009617    16
CTC2_L_00367017-01
1 88132U 23341ZZ  26037.47795139  .00000000  00000+0  00000-0 0  9997
2 88132  55.0000 192.0000 0000000   0.0000 192.0000 13.16009617    13
CTC2_L_00367017-02
1 88133U 22190WJ  26037.47795139  .00000000  00000+0  00000-0 0  9999
2 88133  55.0000 192.0000 0000000   0.0000 282.0000 13.16009617    14
CTC2_L_00367017-03
1 88134U 24431RX  26037.47795139  .00000000  00000+0  00000-0 0  9990
2 88134  55.0000 192.0000 0000000   0.0000  12.0000 13.16009617    16
CTC2_L_00367017-04
1 88135U 25908BN  26037.47795139  .00000000  00000+0  00000-0 0  9991
2 88135  55.0000 192.0000 0000000   0.0000 102.0000 13.16009617    17
CTC2_L_00367018-01
1 88136U 23574DE  26037.47795139  .00000000  00000+0  00000-0 0  9999
2 88136  55.0000 204.0000 0000000   0.0000 204.0000 13.16009617    15
CTC2_L_00367018-02
1 88137U 25363JT  26037.47795139  .00000000  00000+0  00000-0 0  9998
2 88137  55.0000 204.0000 0000000   0.0000 294.0000 13.16009617    15
CTC2_L_00367018-03
1 88138U 24697FE  26037.47795139  .00000000  00000+0  00000-0 0  9998
2 88138  55.0000 204.0000 0000000   0.0000  24.0000 13.16009617    17
CTC2_L_00367018-04
1 88139U 25065AH  26037.47795139  .00000000  00000+0  00000-0 0  9999
2 88139  55.0000 204.0000 0000000   0.0000 114.0000 13.16009617    18
CTC2_L_00367019-01
1 88140U 24533EZ  26037.47795139  .00000000  00000+0  00000-0 0  9990
2 88140  55.0000 216.0000 0000000   0.0000 216.0000 13.16009617    16
CTC2_L_00367019-02
1 88141U 24089P   26037.47795139  .00000000  00000+0  00000-0 0  9997
2 88141  55.0000 216.0000 0000000   0.0000 306.0000 13.16009617    17
CTC2_L_00367019-03
1 88142U 22331GR  26037.47795139  .00000000  00000+0  00000-0 0  9996
2 88142  55.0000 216.0000 0000000   0.0000  36.0000 13.16009617    18
CTC2_L_00367019-04
1 88143U 25326EJ  26037.47795139  .00000000  00000+0  00000-0 0  9994
2 88143  55.0000 216.0000 0000000   0.0000 126.0000 13.16009617    19
CTC2_L_00367020-01
1 88144U 26938HJ  26037.47795139  .00000000  00000+0  00000-0 0  9995
2 88144  55.0000 228.0000 0000000   0.0000 228.0000 13.16009617    16
CTC2_L_00367020-02
1 88145U 22526SY  26037.47795139  .00000000  00000+0  00000-0 0  9995
2 88145  55.0000 228.0000 0000000   0.0000 318.0000 13.16009617    17
CTC2_L_00367020-03
1 88146U 22191TO  26037.47795139  .00000000  00000+0  00000-0 0  9994
2 88146  55.0000 228.0000 0000000   0.0000  48.0000 13.16009617    18
CTC2_L_00367020-04
1 88147U 25327NK  26037.47795139  .00000000  00000+0  00000-0 0  9999
2 88147  55.0000 228.0000 0000000   0.0000 138.0000 13.16009617    19
CTC2_L_00367021-01
1 88148U 24021WY  26037.47795139  .00000000  00000+0  00000-0 0  9990
2 88148  55.0000 240.0000 0000000   0.0000 240.0000 13.16009617    18
CTC2_L_00367021-02
1 88149U 22846PL  26037.47795139  .00000000  00000+0  00000-0 0  9994
2 88149  55.0000 240.0000 0000000   0.0000 330.0000 13.16009617    19
CTC2_L_00367021-03
1 88150U 22274KR  26037.47795139  .00000000  00000+0  00000-0 0  9991
2 88150  55.0000 240.0000 0000000   0.0000  60.0000 13.16009617    11
CTC2_L_00367021-04
1 88151U 22202LL  26037.47795139  .00000000  00000+0  00000-0 0  9993
2 88151  55.0000 240.0000 0000000   0.0000 150.0000 13.16009617    12
CTC2_L_00367022-01
1 88152U 26300SA  26037.47795139  .00000000  00000+0  00000-0 0  9997
2 88152  55.0000 252.0000 0000000   0.0000 252.0000 13.16009617    19
CTC2_L_00367022-02
1 88153U 23961BN  26037.47795139  .00000000  00000+0  00000-0 0  9998
2 88153  55.0000 252.0000 0000000   0.0000 342.0000 13.16009617    10
CTC2_L_00367022-03
1 88154U 26408RA  26037.47795139  .00000000  00000+0  00000-0 0  9998
2 88154  55.0000 252.0000 0000000   0.0000  72.0000 13.16009617    11
CTC2_L_00367022-04
1 88155U 23490XC  26037.47795139  .00000000  00000+0  00000-0 0  9997
2 88155  55.0000 252.0000 0000000   0.0000 162.0000 13.16009617    12
CTC2_L_00367023-01
1 88156U 24456GH  26037.47795139  .00000000  00000+0  00000-0 0  9991
2 88156  55.0000 264.0000 0000000   0.0000 264.0000 13.16009617    19
CTC2_L_00367023-02
1 88157U 24478NF  26037.47795139  .00000000  00000+0  00000-0 0  9996
2 88157  55.0000 264.0000 0000000   0.0000 354.0000 13.16009617    10
CTC2_L_00367023-03
1 88158U 24800HS  26037.47795139  .00000000  00000+0  00000-0 0  9996
2 88158  55.0000 264.0000 0000000   0.0000  84.0000 13.16009617    11
CTC2_L_00367023-04
1 88159U 22311KM  26037.47795139  .00000000  00000+0  00000-0 0  9992
2 88159  55.0000 264.0000 0000000   0.0000 174.0000 13.16009617    12
CTC2_L_00367024-01
1 88160U 22877VA  26037.47795139  .00000000  00000+0  00000-0 0  9991
2 88160  55.0000 276.0000 0000000   0.0000 276.0000 13.16009617    10
CTC2_L_00367024-02
1 88161U 26774TJ  26037.47795139  .00000000  00000+0  00000-0 0  9992
2 88161  55.0000 276.0000 0000000   0.0000   6.0000 13.16009617    12
CTC2_L_00367024-03
1 88162U 24642DE  26037.47795139  .00000000  00000+0  00000-0 0  9995
2 88162  55.0000 276.0000 0000000   0.0000  96.0000 13.16009617    12
CTC2_L_00367024-04
1 88163U 22171BI  26037.47795139  .00000000  00000+0  00000-0 0  9991
2 88163  55.0000 276.0000 0000000   0.0000 186.0000 13.16009617    13
CTC2_L_00367025-01
1 88164U 24815WQ  26037.47795139  .00000000  00000+0  00000-0 0  9999
2 88164  55.0000 288.0000 0000000   0.0000 288.0000 13.16009617    10
CTC2_L_00367025-02
1 88165U 22700GJ  26037.47795139  .00000000  00000+0  00000-0 0  9991
2 88165  55.0000 288.0000 0000000   0.0000  18.0000 13.16009617    12
CTC2_L_00367025-03
1 88166U 22277KQ  26037.47795139  .00000000  00000+0  00000-0 0  9991
2 88166  55.0000 288.0000 0000000   0.0000 108.0000 13.16009617    13
CTC2_L_00367025-04
1 88167U 26585FQ  26037.47795139  .00000000  00000+0  00000-0 0  9998
2 88167  55.0000 288.0000 0000000   0.0000 198.0000 13.16009617    13
CTC2_L_00367026-01
1 88168U 24210DO  26037.47795139  .00000000  00000+0  00000-0 0  9992
2 88168  55.0000 300.0000 0000000   0.0000 300.0000 13.16009617    14
CTC2_L_00367026-02
1 88169U 24138LB  26037.47795139  .00000000  00000+0  00000-0 0  9992
2 88169  55.0000 300.0000 0000000   0.0000  30.0000 13.16009617    15
CTC2_L_00367026-03
1 88170U 22773SE  26037.47795139  .00000000  00000+0  00000-0 0  9997
2 88170  55.0000 300.0000 0000000   0.0000 120.0000 13.16009617    17
CTC2_L_00367026-04
1 88171U 23742FH  26037.47795139  .00000000  00000+0  00000-0 0  9995
2 88171  55.0000 300.0000 0000000   0.0000 210.0000 13.16009617    18
CTC2_L_00367027-01
1 88172U 24103JS  26037.47795139  .00000000  00000+0  00000-0 0  9998
2 88172  55.0000 312.0000 0000000   0.0000 312.0000 13.16009617    15
CTC2_L_00367027-02
1 88173U 22901FE  26037.47795139  .00000000  00000+0  00000-0 0  9993
2 88173  55.0000 312.0000 0000000   0.0000  42.0000 13.16009617    16
CTC2_L_00367027-03
1 88174U 25396BH  26037.47795139  .00000000  00000+0  00000-0 0  9995
2 88174  55.0000 312.0000 0000000   0.0000 132.0000 13.16009617    17
CTC2_L_00367027-04
1 88175U 22088IY  26037.47795139  .00000000  00000+0  00000-0 0  9991
2 88175  55.0000 312.0000 0000000   0.0000 222.0000 13.16009617    18
CTC2_L_00367028-01
1 88176U 22209ZF  26037.47795139  .00000000  00000+0  00000-0 0  9997
2 88176  55.0000 324.0000 0000000   0.0000 324.0000 13.16009617    15
CTC2_L_00367028-02
1 88177U 26804ZX  26037.47795139  .00000000  00000+0  00000-0 0  9993
2 88177  55.0000 324.0000 0000000   0.0000  54.0000 13.16009617    16
CTC2_L_00367028-03
1 88178U 22346X   26037.47795139  .00000000  00000+0  00000-0 0  9991
2 88178  55.0000 324.0000 0000000   0.0000 144.0000 13.16009617    17
CTC2_L_00367028-04
1 88179U 26203KW  26037.47795139  .00000000  00000+0  00000-0 0  9998
2 88179  55.0000 324.0000 0000000   0.0000 234.0000 13.16009617    18
CTC2_L_00367029-01
1 88180U 22599QU  26037.47795139  .00000000  00000+0  00000-0 0  9994
2 88180  55.0000 336.0000 0000000   0.0000 336.0000 13.16009617    16
CTC2_L_00367029-02
1 88181U 22548BW  26037.47795139  .00000000  00000+0  00000-0 0  9999
2 88181  55.0000 336.0000 0000000   0.0000  66.0000 13.16009617    17
CTC2_L_00367029-03
1 88182U 26675DC  26037.47795139  .00000000  00000+0  00000-0 0  9995
2 88182  55.0000 336.0000 0000000   0.0000 156.0000 13.16009617    18
CTC2_L_00367029-04
1 88183U 24236RV  26037.47795139  .00000000  00000+0  00000-0 0  9997
2 88183  55.0000 336.0000 0000000   0.0000 246.0000 13.16009617    19
CTC2_L_00367030-01
1 88184U 24377EL  26037.47795139  .00000000  00000+0  00000-0 0  9994
2 88184  55.0000 348.0000 0000000   0.0000 348.0000 13.16009617    16
CTC2_L_00367030-02
1 88185U 24540WL  26037.47795139  .00000000  00000+0  00000-0 0  9997
2 88185  55.0000 348.0000 0000000   0.0000  78.0000 13.16009617    17
CTC2_L_00367030-03
1 88186U 23924DG  26037.47795139  .00000000  00000+0  00000-0 0  9993
2 88186  55.0000 348.0000 0000000   0.0000 168.0000 13.16009617    18
CTC2_L_00367030-04
1 88187U 26555CR  26037.47795139  .00000000  00000+0  00000-0 0  9997
2 88187  55.0000 348.0000 0000000   0.0000 258.0000 13.16009617    19
